{"fetched_at":"2026-03-29T02:12:04Z","count":15717,"tles":[{"name":"STARLINK-32348","line1":"1 61631U 24191L   26087.31350929  .00000924  00000+0  43102-4 0  9997","line2":"2 61631  43.0025  52.8803 0001058 267.8872  92.1859 15.27576969 80349","category":"Starlink"}]}