{
  "norad_id": 61631,
  "name": "STARLINK-32348",
  "history": [
    {
      "epoch": "2026-03-28T07:31:27.202656",
      "apogee_km": 483.78442946800806,
      "perigee_km": 482.3319144501047,
      "latitude_deg": -42.49961865415464,
      "longitude_deg": 13.196891840081662,
      "semi_major_axis_km": 6861.195171959056,
      "eccentricity": 0.00010585,
      "inclination_deg": 43.0025,
      "raan_deg": 52.8803,
      "arg_perigee_deg": 267.8872,
      "mean_anomaly_deg": 92.1859,
      "mean_motion_rev_day": 15.27576969
    }
  ]
}